[{"OBJECT_NAME":"STARLINK-5523","OBJECT_ID":"2023-064Y","EPOCH":"2026-03-09T13:01:56.648928","MEAN_MOTION":14.98324703,"ECCENTRICITY":0.0002926,"INCLINATION":70.0004,"RA_OF_ASC_NODE":124.9791,"ARG_OF_PERICENTER":262.4662,"MEAN_ANOMALY":97.6164,"EPHEMERIS_TYPE":0,"CLASSIFICATION_TYPE":"U","NORAD_CAT_ID":56470,"ELEMENT_SET_NO":999,"REV_AT_EPOCH":15571,"BSTAR":-4.776753e-5,"MEAN_MOTION_DOT":-6.63e-6,"MEAN_MOTION_DDOT":0},{"OBJECT_NAME":"FENGYUN 1C DEB","OBJECT_ID":"1999-025AVL","EPOCH":"2026-03-06T12:53:29.086080","MEAN_MOTION":14.83381217,"ECCENTRICITY":0.01434433,"INCLINATION":98.8652,"RA_OF_ASC_NODE":274.6705,"ARG_OF_PERICENTER":90.518,"MEAN_ANOMALY":301.133,"EPHEMERIS_TYPE":0,"CLASSIFICATION_TYPE":"U","NORAD_CAT_ID":30826,"ELEMENT_SET_NO":999,"REV_AT_EPOCH":1528,"BSTAR":0.00060190522,"MEAN_MOTION_DOT":5.85e-5,"MEAN_MOTION_DDOT":0}]
